[{"OBJECT_NAME":"STARLINK-33816","OBJECT_ID":"2025-085P","EPOCH":"2026-03-09T06:24:59.029632","MEAN_MOTION":15.27569118,"ECCENTRICITY":0.00015215,"INCLINATION":43.0023,"RA_OF_ASC_NODE":33.4475,"ARG_OF_PERICENTER":262.4679,"MEAN_ANOMALY":97.6,"EPHEMERIS_TYPE":0,"CLASSIFICATION_TYPE":"U","NORAD_CAT_ID":63677,"ELEMENT_SET_NO":999,"REV_AT_EPOCH":4890,"BSTAR":0.0012601286,"MEAN_MOTION_DOT":0.00034565,"MEAN_MOTION_DDOT":0},{"OBJECT_NAME":"PEGASUS R\/B","OBJECT_ID":"2007-015B","EPOCH":"2026-03-09T10:58:33.801024","MEAN_MOTION":15.26741121,"ECCENTRICITY":0.00105976,"INCLINATION":97.9168,"RA_OF_ASC_NODE":31.3919,"ARG_OF_PERICENTER":317.6341,"MEAN_ANOMALY":42.4077,"EPHEMERIS_TYPE":0,"CLASSIFICATION_TYPE":"U","NORAD_CAT_ID":31305,"ELEMENT_SET_NO":999,"REV_AT_EPOCH":3383,"BSTAR":0.00044093522,"MEAN_MOTION_DOT":0.00011537,"MEAN_MOTION_DDOT":0}]
